{"type": "FeatureCollection", "features": [ {"type": "Feature", "properties": {"norad_id": 49810, "name": "GSAT0224 (GALILEO 28)", "group": "gnss", "lat": -56.81259991816168, "lon": -113.23527521887654, "alt_km": 23216.809116891975, "timestamp": "2025-12-17T23:38:07.097807+00:00", "meta": {"OBJECT_NAME": "GSAT0224 (GALILEO 28)", "OBJECT_ID": "2021-116B", "EPOCH": "2025-12-16T23:13:52.406688", "MEAN_MOTION": 1.70476122, "ECCENTRICITY": 0.00037953, "INCLINATION": 57.2194, "RA_OF_ASC_NODE": 346.5971, "ARG_OF_PERICENTER": 257.7514, "MEAN_ANOMALY": 102.8295, "EPHEMERIS_TYPE": 0, "CLASSIFICATION_TYPE": "U", "NORAD_CAT_ID": 49810, "ELEMENT_SET_NO": 999, "REV_AT_EPOCH": 2510, "BSTAR": 0, "MEAN_MOTION_DOT": -7.9e-07, "MEAN_MOTION_DDOT": 0}, "tle": {"line1": "1 49810U 21116B   25350.96796767 -.00000079  00000+0  00000+0 0  9990", "line2": "2 49810  57.2194 346.5971 0003795 257.7514 102.8295  1.70476122 25107"}}, "geometry": {"type": "Point", "coordinates": [-113.23527521887654, -56.81259991816168]}}, {"type": "Feature", "properties": {"norad_id": 52984, "name": "COSMOS 2557 (706K)", "group": "gnss", "lat": 7.293632705756778, "lon": -35.63232161309139, "alt_km": 19129.997905851444, "timestamp": "2025-12-17T23:38:07.097825+00:00", "meta": {"OBJECT_NAME": "COSMOS 2557 (706K)", "OBJECT_ID": "2022-075A", "EPOCH": "2025-12-16T02:19:59.542752", "MEAN_MOTION": 2.13101842, "ECCENTRICITY": 0.001368, "INCLINATION": 64.4074, "RA_OF_ASC_NODE": 320.9331, "ARG_OF_PERICENTER": 277.1677, "MEAN_ANOMALY": 82.672, "EPHEMERIS_TYPE": 0, "CLASSIFICATION_TYPE": "U", "NORAD_CAT_ID": 52984, "ELEMENT_SET_NO": 999, "REV_AT_EPOCH": 2681, "BSTAR": 0, "MEAN_MOTION_DOT": -7e-07, "MEAN_MOTION_DDOT": 0}, "tle": {"line1": "1 52984U 22075A   25350.09721693 -.00000070  00000+0  00000+0 0  9992", "line2": "2 52984  64.4074 320.9331 0013680 277.1677  82.6720  2.13101842 26815"}}, "geometry": {"type": "Point", "coordinates": [-35.63232161309139, 7.293632705756778]}}, {"type": "Feature", "properties": {"norad_id": 54031, "name": "COSMOS 2559 (707K)", "group": "gnss", "lat": 29.639899054948398, "lon": 125.09978578906836, "alt_km": 19105.701077782473, "timestamp": "2025-12-17T23:38:07.097849+00:00", "meta": {"OBJECT_NAME": "COSMOS 2559 (707K)", "OBJECT_ID": "2022-130A", "EPOCH": "2025-12-17T07:46:49.658304", "MEAN_MOTION": 2.13101395, "ECCENTRICITY": 0.00116575, "INCLINATION": 64.3796, "RA_OF_ASC_NODE": 320.9797, "ARG_OF_PERICENTER": 192.1273, "MEAN_ANOMALY": 167.8384, "EPHEMERIS_TYPE": 0, "CLASSIFICATION_TYPE": "U", "NORAD_CAT_ID": 54031, "ELEMENT_SET_NO": 999, "REV_AT_EPOCH": 2481, "BSTAR": 0, "MEAN_MOTION_DOT": -6.8e-07, "MEAN_MOTION_DDOT": 0}, "tle": {"line1": "1 54031U 22130A   25351.32418586 -.00000068  00000+0  00000+0 0  9997", "line2": "2 54031  64.3796 320.9797 0011657 192.1273 167.8384  2.13101395 24819"}}, "geometry": {"type": "Point", "coordinates": [125.09978578906836, 29.639899054948398]}}, {"type": "Feature", "properties": {"norad_id": 54377, "name": "COSMOS 2564 (761)", "group": "gnss", "lat": -64.48049469057143, "lon": 100.36034253604474, "alt_km": 19126.20384627799, "timestamp": "2025-12-17T23:38:07.097867+00:00", "meta": {"OBJECT_NAME": "COSMOS 2564 (761)", "OBJECT_ID": "2022-161A", "EPOCH": "2025-12-16T16:46:44.679072", "MEAN_MOTION": 2.13102099, "ECCENTRICITY": 0.00085776, "INCLINATION": 64.7384, "RA_OF_ASC_NODE": 198.7673, "ARG_OF_PERICENTER": 204.2808, "MEAN_ANOMALY": 155.7608, "EPHEMERIS_TYPE": 0, "CLASSIFICATION_TYPE": "U", "NORAD_CAT_ID": 54377, "ELEMENT_SET_NO": 999, "REV_AT_EPOCH": 2374, "BSTAR": 0, "MEAN_MOTION_DOT": 1.11e-06, "MEAN_MOTION_DDOT": 0}, "tle": {"line1": "1 54377U 22161A   25350.69912823  .00000111  00000+0  00000+0 0  9994", "line2": "2 54377  64.7384 198.7673 0008577 204.2808 155.7608  2.13102099 23747"}}, "geometry": {"type": "Point", "coordinates": [100.36034253604474, -64.48049469057143]}}, {"type": "Feature", "properties": {"norad_id": 55268, "name": "GPS BIII-6  (PRN 28)", "group": "gnss", "lat": 8.397980763043748, "lon": 161.54625836947176, "alt_km": 20172.641942886992, "timestamp": "2025-12-17T23:38:07.097887+00:00", "meta": {"OBJECT_NAME": "GPS BIII-6  (PRN 28)", "OBJECT_ID": "2023-009A", "EPOCH": "2025-12-17T05:26:38.724576", "MEAN_MOTION": 2.00555443, "ECCENTRICITY": 0.00036765, "INCLINATION": 55.1057, "RA_OF_ASC_NODE": 155.6691, "ARG_OF_PERICENTER": 356.3023, "MEAN_ANOMALY": 186.6763, "EPHEMERIS_TYPE": 0, "CLASSIFICATION_TYPE": "U", "NORAD_CAT_ID": 55268, "ELEMENT_SET_NO": 999, "REV_AT_EPOCH": 2159, "BSTAR": 0, "MEAN_MOTION_DOT": 7.9e-07, "MEAN_MOTION_DDOT": 0}, "tle": {"line1": "1 55268U 23009A   25351.22683709  .00000079  00000+0  00000+0 0  9997", "line2": "2 55268  55.1057 155.6691 0003676 356.3023 186.6763  2.00555443 21590"}}, "geometry": {"type": "Point", "coordinates": [161.54625836947176, 8.397980763043748]}}, {"type": "Feature", "properties": {"norad_id": 56564, "name": "BEIDOU-3 G4 (C62)", "group": "gnss", "lat": -0.7282248667925101, "lon": -118.5362476758315, "alt_km": 35782.547106855716, "timestamp": "2025-12-17T23:38:07.097906+00:00", "meta": {"OBJECT_NAME": "BEIDOU-3 G4 (C62)", "OBJECT_ID": "2023-066A", "EPOCH": "2025-12-17T15:08:37.724352", "MEAN_MOTION": 1.0027174, "ECCENTRICITY": 0.00027713, "INCLINATION": 0.8046, "RA_OF_ASC_NODE": 302.4301, "ARG_OF_PERICENTER": 227.3204, "MEAN_ANOMALY": 303.9742, "EPHEMERIS_TYPE": 0, "CLASSIFICATION_TYPE": "U", "NORAD_CAT_ID": 56564, "ELEMENT_SET_NO": 999, "REV_AT_EPOCH": 957, "BSTAR": 0, "MEAN_MOTION_DOT": -8.5e-07, "MEAN_MOTION_DDOT": 0}, "tle": {"line1": "1 56564U 23066A   25351.63099218 -.00000085  00000+0  00000+0 0  9999", "line2": "2 56564   0.8046 302.4301 0002771 227.3204 303.9742  1.00271740  9577"}}, "geometry": {"type": "Point", "coordinates": [-118.5362476758315, -0.7282248667925101]}}, {"type": "Feature", "properties": {"norad_id": 56759, "name": "NVS-01 (IRNSS-1J)", "group": "gnss", "lat": -1.7174170277197383, "lon": -149.1622416240841, "alt_km": 35764.61879273064, "timestamp": "2025-12-17T23:38:07.097918+00:00", "meta": {"OBJECT_NAME": "NVS-01 (IRNSS-1J)", "OBJECT_ID": "2023-076A", "EPOCH": "2025-12-17T13:56:34.001376", "MEAN_MOTION": 1.00275299, "ECCENTRICITY": 0.00087899, "INCLINATION": 2.6067, "RA_OF_ASC_NODE": 251.4278, "ARG_OF_PERICENTER": 15.5873, "MEAN_ANOMALY": 158.1035, "EPHEMERIS_TYPE": 0, "CLASSIFICATION_TYPE": "U", "NORAD_CAT_ID": 56759, "ELEMENT_SET_NO": 999, "REV_AT_EPOCH": 929, "BSTAR": 0, "MEAN_MOTION_DOT": -3.07e-06, "MEAN_MOTION_DDOT": 0}, "tle": {"line1": "1 56759U 23076A   25351.58094909 -.00000307  00000+0  00000+0 0  9999", "line2": "2 56759   2.6067 251.4278 0008789  15.5873 158.1035  1.00275299  9293"}}, "geometry": {"type": "Point", "coordinates": [-149.1622416240841, -1.7174170277197383]}}, {"type": "Feature", "properties": {"norad_id": 57517, "name": "COSMOS 2569 (703K)", "group": "gnss", "lat": -61.739776522366085, "lon": -42.07793534381719, "alt_km": 19112.82165911383, "timestamp": "2025-12-17T23:38:07.097930+00:00", "meta": {"OBJECT_NAME": "COSMOS 2569 (703K)", "OBJECT_ID": "2023-114A", "EPOCH": "2025-12-17T15:37:24.355776", "MEAN_MOTION": 2.13104039, "ECCENTRICITY": 0.00107108, "INCLINATION": 65.1967, "RA_OF_ASC_NODE": 78.7475, "ARG_OF_PERICENTER": 286.9881, "MEAN_ANOMALY": 72.9145, "EPHEMERIS_TYPE": 0, "CLASSIFICATION_TYPE": "U", "NORAD_CAT_ID": 57517, "ELEMENT_SET_NO": 999, "REV_AT_EPOCH": 1839, "BSTAR": 0, "MEAN_MOTION_DOT": -4.6e-07, "MEAN_MOTION_DDOT": 0}, "tle": {"line1": "1 57517U 23114A   25351.65097634 -.00000046  00000+0  00000+0 0  9991", "line2": "2 57517  65.1967  78.7475 0010710 286.9881  72.9145  2.13104039 18392"}}, "geometry": {"type": "Point", "coordinates": [-42.07793534381719, -61.739776522366085]}}, {"type": "Feature", "properties": {"norad_id": 58654, "name": "BEIDOU-3 M28 (C50)", "group": "gnss", "lat": 46.32415435661914, "lon": -157.35268953583292, "alt_km": 21529.071973504164, "timestamp": "2025-12-17T23:38:07.097944+00:00", "meta": {"OBJECT_NAME": "BEIDOU-3 M28 (C50)", "OBJECT_ID": "2023-207A", "EPOCH": "2025-12-17T06:29:44.947968", "MEAN_MOTION": 1.86229839, "ECCENTRICITY": 0.00025948, "INCLINATION": 55.5883, "RA_OF_ASC_NODE": 68.448, "ARG_OF_PERICENTER": 271.6936, "MEAN_ANOMALY": 88.3013, "EPHEMERIS_TYPE": 0, "CLASSIFICATION_TYPE": "U", "NORAD_CAT_ID": 58654, "ELEMENT_SET_NO": 999, "REV_AT_EPOCH": 1345, "BSTAR": 0, "MEAN_MOTION_DOT": -7.5e-07, "MEAN_MOTION_DDOT": 0}, "tle": {"line1": "1 58654U 23207A   25351.27065912 -.00000075  00000+0  00000+0 0  9991", "line2": "2 58654  55.5883  68.4480 0002594 271.6936  88.3013  1.86229839 13452"}}, "geometry": {"type": "Point", "coordinates": [-157.35268953583292, 46.32415435661914]}}, {"type": "Feature", "properties": {"norad_id": 58655, "name": "BEIDOU-3 M26 (C48)", "group": "gnss", "lat": -52.66954122179605, "lon": -47.76766625463378, "alt_km": 21522.610462076016, "timestamp": "2025-12-17T23:38:07.097958+00:00", "meta": {"OBJECT_NAME": "BEIDOU-3 M26 (C48)", "OBJECT_ID": "2023-207B", "EPOCH": "2025-12-17T01:38:17.973312", "MEAN_MOTION": 1.86231321, "ECCENTRICITY": 0.00040056, "INCLINATION": 55.5902, "RA_OF_ASC_NODE": 68.4411, "ARG_OF_PERICENTER": 257.8866, "MEAN_ANOMALY": 102.0924, "EPHEMERIS_TYPE": 0, "CLASSIFICATION_TYPE": "U", "NORAD_CAT_ID": 58655, "ELEMENT_SET_NO": 999, "REV_AT_EPOCH": 1343, "BSTAR": 0, "MEAN_MOTION_DOT": -7.6e-07, "MEAN_MOTION_DDOT": 0}, "tle": {"line1": "1 58655U 23207B   25351.06826358 -.00000076  00000+0  00000+0 0  9999", "line2": "2 58655  55.5902  68.4411 0004005 257.8866 102.0924  1.86231321 13438"}}, "geometry": {"type": "Point", "coordinates": [-47.76766625463378, -52.66954122179605]}}]}